{
    "links": {
        "self": "http://www.neowsapp.com/rest/v1/neo/3508125?api_key=iIulBulltgU6a56xZRHN4H3l9WmuAYTsLGpBGhQ2"
    },
    "id": "3508125",
    "neo_reference_id": "3508125",
    "name": "(2010 CS19)",
    "designation": "2010 CS19",
    "nasa_jpl_url": "http://ssd.jpl.nasa.gov/sbdb.cgi?sstr=3508125",
    "absolute_magnitude_h": 28.0,
    "estimated_diameter": {
        "kilometers": {
            "estimated_diameter_min": 0.0066765941,
            "estimated_diameter_max": 0.0149293183
        },
        "meters": {
            "estimated_diameter_min": 6.676594135,
            "estimated_diameter_max": 14.9293183439
        },
        "miles": {
            "estimated_diameter_min": 0.004148642,
            "estimated_diameter_max": 0.0092766455
        },
        "feet": {
            "estimated_diameter_min": 21.9048371017,
            "estimated_diameter_max": 48.9807047955
        }
    },
    "is_potentially_hazardous_asteroid": false,
    "close_approach_data": [
        {
            "close_approach_date": "2010-02-12",
            "close_approach_date_full": "2010-Feb-12 23:56",
            "epoch_date_close_approach": 1266018960000,
            "relative_velocity": {
                "kilometers_per_second": "7.7717047306",
                "kilometers_per_hour": "27978.1370301573",
                "miles_per_hour": "17384.5263118774"
            },
            "miss_distance": {
                "astronomical": "0.0073028674",
                "lunar": "2.8408154186",
                "kilometers": "1092493.407932438",
                "miles": "678843.9252781244"
            },
            "orbiting_body": "Moon"
        },
        {
            "close_approach_date": "2010-02-13",
            "close_approach_date_full": "2010-Feb-13 03:25",
            "epoch_date_close_approach": 1266031500000,
            "relative_velocity": {
                "kilometers_per_second": "6.955969981",
                "kilometers_per_hour": "25041.4919316582",
                "miles_per_hour": "15559.809250535"
            },
            "miss_distance": {
                "astronomical": "0.0047975894",
                "lunar": "1.8662622766",
                "kilometers": "717709.155374578",
                "miles": "445963.7895340564"
            },
            "orbiting_body": "Earth"
        }
    ],
    "orbital_data": {
        "orbit_id": "12",
        "orbit_determination_date": "2017-04-06 08:58:24",
        "first_observation_date": "2010-02-15",
        "last_observation_date": "2010-02-20",
        "data_arc_in_days": 5,
        "observations_used": 43,
        "orbit_uncertainty": "7",
        "minimum_orbit_intersection": ".00210676",
        "jupiter_tisserand_invariant": "4.026",
        "epoch_osculation": "2459000.5",
        "eccentricity": ".4405972908966719",
        "semi_major_axis": "1.739927721591687",
        "inclination": "4.180735271431808",
        "ascending_node_longitude": "143.5943436287942",
        "orbital_period": "838.2918391637523",
        "perihelion_distance": ".9733202811023708",
        "perihelion_argument": "340.5173883539936",
        "aphelion_distance": "2.506535162081003",
        "perihelion_time": "2459414.882859200754",
        "mean_anomaly": "182.0454711081459",
        "mean_motion": ".4294447150518871",
        "equinox": "J2000",
        "orbit_class": {
            "orbit_class_type": "APO",
            "orbit_class_description": "Near-Earth asteroid orbits which cross the Earth’s orbit similar to that of 1862 Apollo",
            "orbit_class_range": "a (semi-major axis) > 1.0 AU; q (perihelion) < 1.017 AU"
        }
    },
    "is_sentry_object": false
}